IRIDIUM 8 [+]           
1 24792U 97020A   17136.63138563 -.00000166  00000-0 -66253-4 0  9996
2 24792  86.3936 331.8895 0002044  86.6764 273.4665 14.34218481 48444
IRIDIUM 7 [+]           
1 24793U 97020B   17136.90411619 -.00000064  00000-0 -29995-4 0  9992
2 24793  86.3942 332.0575 0002065  85.4384 274.7048 14.34218564 48483
IRIDIUM 6 [+]           
1 24794U 97020C   17136.89768773 -.00000091  00000-0 -39494-4 0  9992
2 24794  86.3940 331.9912 0002125  85.0198 275.1240 14.34220876 48478
IRIDIUM 5 [+]           
1 24795U 97020D   17136.61235471 -.00000034  00000-0 -19213-4 0  9991
2 24795  86.3931 332.1255 0002120  82.2328 277.9109 14.34218707 48712
IRIDIUM 4 [-]           
1 24796U 97020E   17136.91921860  .00000099  00000-0  27757-4 0  9990
2 24796  86.3936 330.9487 0002134  90.6906  28.1791 14.35152687 48786
IRIDIUM 914 [-]         
1 24836U 97030A   17136.89620746  .00000097  00000-0  25247-4 0  9992
2 24836  86.3932 347.8020 0001813 136.5414 223.5928 14.38756788182343
IRIDIUM 12 [+]          
1 24837U 97030B   17136.71072247  .00000101  00000-0  29076-4 0  9991
2 24837  86.3970   3.2596 0002085  86.0047 338.2977 14.34218037 42158
IRIDIUM 10 [+]          
1 24839U 97030D   17136.69736394  .00000098  00000-0  28003-4 0  9994
2 24839  86.3969   3.2449 0002076  85.6836 335.1268 14.34217829 42423
IRIDIUM 13 [+]          
1 24840U 97030E   17136.70463447  .00000106  00000-0  30706-4 0  9997
2 24840  86.3972   3.3814 0001967  82.9787 277.1633 14.34217805 42435
IRIDIUM 16 [-]          
1 24841U 97030F   17136.72019298  .00000097  00000-0  26292-4 0  9995
2 24841  86.4050   3.2020 0003880  56.7654 303.3915 14.36708404 42808
IRIDIUM 911 [-]         
1 24842U 97030G   17136.66945388  .00000140  00000-0  34358-4 0  9998
2 24842  86.4477   4.0260 0013941 187.3664 172.7335 14.44956135 48409
IRIDIUM 15 [+]          
1 24869U 97034A   17136.79948299  .00000205  00000-0  60539-4 0  9991
2 24869  86.4217  35.2152 0002783  87.8591 272.2926 14.38638297 39154
IRIDIUM 17 [-]          
1 24870U 97034B   17136.66774667  .00000093  00000-0  25182-4 0  9995
2 24870  86.3995  33.3866 0001811  33.7565 326.3747 14.35755508 39650
IRIDIUM 920 [-]         
1 24871U 97034C   17136.95236603  .00000070  00000-0  15913-4 0  9997
2 24871  86.4001  19.5304 0013927  83.7856 276.4929 14.39468671 41591
IRIDIUM 18 [+]          
1 24872U 97034D   17135.12224440  .00000176  00000-0  55926-4 0  9997
2 24872  86.3997  35.9005 0002293  83.0812 277.0645 14.34230783 39173
IRIDIUM 921 [-]         
1 24873U 97034E   17136.92350403  .00001252  00000-0  72264-4 0  9996
2 24873  86.3934  80.7620 0009858 121.0739 239.1468 15.11296283 83096
IRIDIUM 26 [-]          
1 24903U 97043A   17136.74008569  .00000103  00000-0  28987-4 0  9990
2 24903  86.3962 267.9431 0002360  91.3188  33.6671 14.35255226 32980
IRIDIUM 25 [+]          
1 24904U 97043B   17136.88466533  .00000119  00000-0  35462-4 0  9998
2 24904  86.3952 268.4949 0002372  94.0625 266.0842 14.34216391 33138
IRIDIUM 46 [+]          
1 24905U 97043C   17136.89731563  .00000032  00000-0  42484-5 0  9995
2 24905  86.3975 268.4547 0002746  99.6834 260.4672 14.34219201 33341
IRIDIUM 23 [+]          
1 24906U 97043D   17136.91307306  .00000112  00000-0  32804-4 0  9996
2 24906  86.3966 268.5276 0002408  97.6185  16.4304 14.34216419 33073
IRIDIUM 22 [+]          
1 24907U 97043E   17136.86562479  .00000108  00000-0  31501-4 0  9993
2 24907  86.3962 269.1684 0002301  95.6617 264.4842 14.34217979 33355
DUMMY MASS 1 [-]        
1 24925U 97048A   17136.85121486  .00000091  00000-0  73720-5 0  9997
2 24925  86.3377  57.8632 0008377 138.2241 221.9623 14.85132022 66932
DUMMY MASS 2 [-]        
1 24926U 97048B   17136.81741901  .00000083  00000-0  63847-5 0  9994
2 24926  86.3375  58.9895 0008885 146.2157 213.9635 14.84900146 66532
IRIDIUM 29 [-]          
1 24944U 97051A   17136.93407295  .00000088  00000-0  24284-4 0  9992
2 24944  86.3933 299.9452 0001883  96.2646 263.8765 14.34625645 29738
IRIDIUM 32 [+]          
1 24945U 97051B   17136.89439470 -.00000054  00000-0 -26348-4 0  9996
2 24945  86.3924 300.1774 0002133  91.6104 268.5336 14.34214145 29935
IRIDIUM 33 [-]          
1 24946U 97051C   17136.84258361  .00000089  00000-0  25051-4 0  9996
2 24946  86.3846 299.8481 0007630   1.6381 358.4838 14.33551471 29530
IRIDIUM 28 [-]          
1 24948U 97051E   17136.90013462  .00000095  00000-0  26026-4 0  9996
2 24948  86.3937 299.2092 0002368  84.2829 275.8637 14.35548444 30025
IRIDIUM 30 [+]          
1 24949U 97051F   17136.88818725 -.00000220  00000-0 -85698-4 0  9991
2 24949  86.3928 300.3022 0002300  73.8270 286.3179 14.34224805 29705
IRIDIUM 31 [+]          
1 24950U 97051G   17136.88169550 -.00000059  00000-0 -28134-4 0  9990
2 24950  86.3924 300.2765 0001962  89.5892 270.5528 14.34214479 30007
IRIDIUM 19 [+]          
1 24965U 97056A   17136.79629358 -.00000027  00000-0 -16866-4 0  9992
2 24965  86.3937 331.8320 0002045  85.8094 274.3336 14.34218419 28059
IRIDIUM 35 [+]          
1 24966U 97056B   17136.87874526 -.00000044  00000-0 -22651-4 0  9999
2 24966  86.3936 331.7915 0002061  85.8841 274.2590 14.34221011 27766
IRIDIUM 36 [-]          
1 24967U 97056C   17136.90612919  .00000092  00000-0  24911-4 0  9992
2 24967  86.3950 330.8617 0002023  88.9936 271.1492 14.35601504 28374
IRIDIUM 37 [+]          
1 24968U 97056D   17136.85337880 -.00000068  00000-0 -31432-4 0  9999
2 24968  86.3939 331.9878 0002029  86.5017 273.6410 14.34218483 27839
IRIDIUM 34 [+]          
1 24969U 97056E   17136.52356110 -.00000043  00000-0 -22347-4 0  9999
2 24969  86.3939 332.0626 0002012  84.9577 275.1848 14.34218496 28004
IRIDIUM 43 [-]          
1 25039U 97069A   17136.93273141  .00114408  14178-5  76311-3 0  9993
2 25039  86.4094  34.7428 0337607 162.2451 199.0946 15.25681419 21886
IRIDIUM 41 [+]          
1 25040U 97069B   17136.64465177  .00000182  00000-0  58059-4 0  9992
2 25040  86.3994  35.1458 0002350  82.9606 277.1857 14.34213719 21497
IRIDIUM 40 [-]          
1 25041U 97069C   17136.92331766  .00054615 -68792-6  52854-3 0  9995
2 25041  86.3924  32.6963 0293920  38.4563 323.7230 15.27421882 22171
IRIDIUM 39 [B]          
1 25042U 97069D   17136.74121831  .00000135  00000-0  31840-4 0  9998
2 25042  86.3952  32.6317 0021000  60.5077 299.8216 14.46152838 21910
IRIDIUM 38 [-]          
1 25043U 97069E   17136.93409204  .00000109  00000-0  30662-4 0  9995
2 25043  86.3994  32.2443 0003100  62.5829 297.5683 14.36027799 21987
IRIDIUM 42 [-]          
1 25077U 97077A   17136.79983311  .00000086  00000-0  23356-4 0  9997
2 25077  86.3999  35.0343 0002368  81.5482 278.5982 14.34542242 17686
IRIDIUM 44 [-]          
1 25078U 97077B   17136.90459425  .00000139  00000-0  39435-4 0  9999
2 25078  86.3992  24.6467 0003115  54.0149 306.1338 14.38120839 19107
IRIDIUM 45 [+]          
1 25104U 97082A   17136.87535248 -.00000057  00000-0 -27326-4 0  9996
2 25104  86.3922 300.3107 0002919  75.0353 285.1166 14.34214411 15620
IRIDIUM 24 [-]          
1 25105U 97082B   17136.83960519  .00000091  00000-0  22483-4 0  9991
2 25105  86.3943 248.6776 0013924  89.4834 270.7960 14.39853150 18091
IRIDIUM 47 [+]          
1 25106U 97082C   17136.76416909  .00000125  00000-0  37677-4 0  9992
2 25106  86.3950 268.4174 0002408  97.4195 262.7275 14.34216247 15571
IRIDIUM 49 [+]          
1 25108U 97082E   17136.79855236  .00000118  00000-0  35093-4 0  9999
2 25108  86.3952 268.5048 0002369  95.7493  16.3679 14.34216164 15618
IRIDIUM 52 [+]          
1 25169U 98010A   17136.66656392  .00000081  00000-0  21991-4 0  9997
2 25169  86.3975   3.5732 0002103  85.6112 274.5324 14.34216740  6984
IRIDIUM 56 [+]          
1 25170U 98010B   17136.72998512  .00000167  00000-0  52730-4 0  9999
2 25170  86.3979   3.6544 0002289  83.2169 276.9287 14.34221194  7178
IRIDIUM 54 [+]          
1 25171U 98010C   17136.69194027  .00000102  00000-0  29428-4 0  9992
2 25171  86.3975   3.5833 0002076  85.7760 274.3673 14.34218397  7434
IRIDIUM 50 [+]          
1 25172U 98010D   17136.79341827  .00000110  00000-0  32122-4 0  9990
2 25172  86.3974   3.4973 0002051  88.4064 271.7367 14.34218611  6987
IRIDIUM 53 [+]          
1 25173U 98010E   17136.67294649  .00000102  00000-0  29495-4 0  9997
2 25173  86.3975   3.5538 0002074  85.3373 274.8059 14.34215318  6984
IRIDIUM 51 [S]          
1 25262U 98018A   17136.89776029 -.00000170  00000-0 -67730-4 0  9996
2 25262  86.3940 332.1137 0002041  94.6244 265.5185 14.34217025  6439
IRIDIUM 61 [+]          
1 25263U 98018B   17136.58064653 -.00000051  00000-0 -25179-4 0  9995
2 25263  86.3939 332.0673 0002068  86.1084 274.0348 14.34218152  2107
IRIDIUM 55 [+]          
1 25272U 98019A   17136.86267517 -.00000051  00000-0 -25318-4 0  9996
2 25272  86.3923 300.0989 0002143  90.7578 269.3863 14.34213527  1365
IRIDIUM 57 [-]          
1 25273U 98019B   17136.90052429  .00000084  00000-0  22956-4 0  9995
2 25273  86.3935 300.3911 0002104  93.7981 266.3455 14.34268161  1363
IRIDIUM 58 [+]          
1 25274U 98019C   17136.84362653 -.00000036  00000-0 -20015-4 0  9995
2 25274  86.3929 300.6102 0002202  91.2941 268.8507 14.34215266  1363
IRIDIUM 59 [+]          
1 25275U 98019D   17136.84998018 -.00000053  00000-0 -26051-4 0  9991
2 25275  86.3924 300.4621 0002078  93.1598 266.9836 14.34214628  1650
IRIDIUM 60 [+]          
1 25276U 98019E   17136.50752386 -.00000060  00000-0 -28452-4 0  9996
2 25276  86.3921 300.2262 0002133  89.7877 270.3564 14.34212899  1318
IRIDIUM 62 [+]          
1 25285U 98021A   17136.81785698  .00000167  00000-0  52709-4 0  9993
2 25285  86.3990 236.9977 0002438  97.5887 262.5586 14.34220214   538
IRIDIUM 63 [-]          
1 25286U 98021B   17136.85275081  .00000117  00000-0  34523-4 0  9997
2 25286  86.4021 237.3914 0002224 100.2343  18.5047 14.34658140   278
